FENGYUN 1C DEB          
1 38155U 99025ERC 17345.38390804  .00001398  00000-0  87780-3 0  9996
2 38155  98.4355  41.2206 0138876 162.8802 197.7119 14.01276835226612
